ONEWEB-0656             
1 55817U 23029X   24342.61895517  .00000054  00000+0  10105-3 0  9997
2 55817  87.9267  25.1453 0002313 109.6091 250.5292 13.20771453 87689
ONEWEB-0657             
1 55818U 23029Y   24342.72935899 -.00000020  00000+0 -82963-4 0  9995
2 55818  87.9190  55.6339 0001985 128.6309 231.5001 13.19726964 85515
ONEWEB-0658             
1 55819U 23029Z   24343.48277851  .00000032  00000+0  47503-4 0  9999
2 55819  87.9188  55.4183 0001216  96.6781 263.4490 13.19726739 86307
ONEWEB-0660             
1 55820U 23029AA  24343.46683252 -.00001435  00000+0 -39050-2 0  9991
2 55820  87.9014  40.1884 0002234  90.1586 269.9800 13.14511188 87109
ONEWEB-0661             
1 55821U 23029AB  24343.42560786 -.00000180  00000+0 -51991-3 0  9999
2 55821  87.9019  40.2648 0001834  85.6847 274.4492 13.14503616 87068
ONEWEB-0662             
1 55822U 23029AC  24342.92766903  .00000322  00000+0  83409-3 0  9998
2 55822  87.9019  40.3715 0001595  86.9252 273.2060 13.14503383 86353
ONEWEB-0663             
1 55823U 23029AD  24343.36572054  .00000085  00000+0  17743-3 0  9994
2 55823  87.9267  25.0557 0001636  82.9992 277.1328 13.20817065 88451
ONEWEB-0664             
1 55824U 23029AE  24342.90935406  .00000114  00000+0  24773-3 0  9992
2 55824  87.9265  25.1628 0002222  89.5554 270.5834 13.20773218 87717
